{
  "type": "FeatureCollection",
  "features": [
    {
      "type": "Feature",
      "properties": {
        "norad_id": 30416,
        "name": "FENGYUN 1C DEB",
        "group": "fengyun-1c-debris",
        "lat": -80.11212548100922,
        "lon": 132.10522787319175,
        "alt_km": 889.993862018905,
        "timestamp": "2025-12-16T23:36:36.472804+00:00",
        "meta_object_name": "FENGYUN 1C DEB",
        "meta_object_id": "1999-025AEF",
        "meta_epoch": "2025-12-16T08:39:17.410752",
        "meta_mean_motion": 14.0263527,
        "meta_eccentricity": 0.00556413,
        "meta_inclination": 98.8351,
        "meta_ra_of_asc_node": 14.6618,
        "meta_arg_of_pericenter": 179.8107,
        "meta_mean_anomaly": 180.3089,
        "meta_ephemeris_type": 0,
        "meta_classification_type": "U",
        "meta_norad_cat_id": 30416,
        "meta_element_set_no": 999,
        "meta_rev_at_epoch": 96675,
        "meta_bstar": 0.00049182715,
        "meta_mean_motion_dot": 7.26e-06,
        "meta_mean_motion_ddot": 0,
        "tle_line1": "1 30416U 99025AEF 25350.36061818  .00000726  00000+0  49183-3 0  9999",
        "tle_line2": "2 30416  98.8351  14.6618 0055641 179.8107 180.3089 14.02635270966752"
      },
      "geometry": {
        "type": "Point",
        "coordinates": [
          132.10522787319175,
          -80.11212548100922
        ]
      }
    },
    {
      "type": "Feature",
      "properties": {
        "norad_id": 30417,
        "name": "FENGYUN 1C DEB",
        "group": "fengyun-1c-debris",
        "lat": -53.601837104916385,
        "lon": -7.166281299358801,
        "alt_km": 894.8203048356372,
        "timestamp": "2025-12-16T23:36:36.472814+00:00",
        "meta_object_name": "FENGYUN 1C DEB",
        "meta_object_id": "1999-025AEG",
        "meta_epoch": "2025-12-16T05:16:13.770912",
        "meta_mean_motion": 14.14666793,
        "meta_eccentricity": 0.00645376,
        "meta_inclination": 98.6932,
        "meta_ra_of_asc_node": 340.1118,
        "meta_arg_of_pericenter": 110.1884,
        "meta_mean_anomaly": 266.1032,
        "meta_ephemeris_type": 0,
        "meta_classification_type": "U",
        "meta_norad_cat_id": 30417,
        "meta_element_set_no": 999,
        "meta_rev_at_epoch": 97438,
        "meta_bstar": 0.00026846836,
        "meta_mean_motion_dot": 4.85e-06,
        "meta_mean_motion_ddot": 0,
        "tle_line1": "1 30417U 99025AEG 25350.21960383  .00000485  00000+0  26847-3 0  9993",
        "tle_line2": "2 30417  98.6932 340.1118 0064537 110.1884 266.1032 14.14666793974388"
      },
      "geometry": {
        "type": "Point",
        "coordinates": [
          -7.166281299358801,
          -53.601837104916385
        ]
      }
    },
    {
      "type": "Feature",
      "properties": {
        "norad_id": 30418,
        "name": "FENGYUN 1C DEB",
        "group": "fengyun-1c-debris",
        "lat": 64.16924093203542,
        "lon": 132.47051911851733,
        "alt_km": 546.7456903483817,
        "timestamp": "2025-12-16T23:36:36.472824+00:00",
        "meta_object_name": "FENGYUN 1C DEB",
        "meta_object_id": "1999-025AEH",
        "meta_epoch": "2025-12-15T10:20:54.494592",
        "meta_mean_motion": 14.84251337,
        "meta_eccentricity": 0.01111786,
        "meta_inclination": 98.8402,
        "meta_ra_of_asc_node": 149.5047,
        "meta_arg_of_pericenter": 107.0541,
        "meta_mean_anomaly": 308.4251,
        "meta_ephemeris_type": 0,
        "meta_classification_type": "U",
        "meta_norad_cat_id": 30418,
        "meta_element_set_no": 999,
        "meta_rev_at_epoch": 632,
        "meta_bstar": 0.00050190758,
        "meta_mean_motion_dot": 4.623e-05,
        "meta_mean_motion_ddot": 0,
        "tle_line1": "1 30418U 99025AEH 25349.43118628  .00004623  00000+0  50191-3 0  9990",
        "tle_line2": "2 30418  98.8402 149.5047 0111178 107.0541 308.4251 14.84251337  6328"
      },
      "geometry": {
        "type": "Point",
        "coordinates": [
          132.47051911851733,
          64.16924093203542
        ]
      }
    },
    {
      "type": "Feature",
      "properties": {
        "norad_id": 30419,
        "name": "FENGYUN 1C DEB",
        "group": "fengyun-1c-debris",
        "lat": -58.58785163533149,
        "lon": 102.48405111715377,
        "alt_km": 865.1403961732603,
        "timestamp": "2025-12-16T23:36:36.472834+00:00",
        "meta_object_name": "FENGYUN 1C DEB",
        "meta_object_id": "1999-025AEJ",
        "meta_epoch": "2025-12-15T19:31:30.840960",
        "meta_mean_motion": 14.18049631,
        "meta_eccentricity": 0.00529973,
        "meta_inclination": 99.2403,
        "meta_ra_of_asc_node": 296.7268,
        "meta_arg_of_pericenter": 16.4501,
        "meta_mean_anomaly": 13.2067,
        "meta_ephemeris_type": 0,
        "meta_classification_type": "U",
        "meta_norad_cat_id": 30419,
        "meta_element_set_no": 999,
        "meta_rev_at_epoch": 97392,
        "meta_bstar": 0.00066329346,
        "meta_mean_motion_dot": 1.331e-05,
        "meta_mean_motion_ddot": 0,
        "tle_line1": "1 30419U 99025AEJ 25349.81355140  .00001331  00000+0  66329-3 0  9998",
        "tle_line2": "2 30419  99.2403 296.7268 0052997  16.4501  13.2067 14.18049631973921"
      },
      "geometry": {
        "type": "Point",
        "coordinates": [
          102.48405111715377,
          -58.58785163533149
        ]
      }
    },
    {
      "type": "Feature",
      "properties": {
        "norad_id": 30432,
        "name": "FENGYUN 1C DEB",
        "group": "fengyun-1c-debris",
        "lat": -36.761403382349094,
        "lon": 63.32094708877791,
        "alt_km": 781.5051506495147,
        "timestamp": "2025-12-16T23:36:36.472844+00:00",
        "meta_object_name": "FENGYUN 1C DEB",
        "meta_object_id": "1999-025AET",
        "meta_epoch": "2025-12-16T04:15:49.570848",
        "meta_mean_motion": 14.40696482,
        "meta_eccentricity": 0.0082775,
        "meta_inclination": 98.8354,
        "meta_ra_of_asc_node": 249.1613,
        "meta_arg_of_pericenter": 328.7855,
        "meta_mean_anomaly": 30.8431,
        "meta_ephemeris_type": 0,
        "meta_classification_type": "U",
        "meta_norad_cat_id": 30432,
        "meta_element_set_no": 999,
        "meta_rev_at_epoch": 98784,
        "meta_bstar": 0.00055029062,
        "meta_mean_motion_dot": 1.781e-05,
        "meta_mean_motion_ddot": 0,
        "tle_line1": "1 30432U 99025AET 25350.17765707  .00001781  00000+0  55029-3 0  9992",
        "tle_line2": "2 30432  98.8354 249.1613 0082775 328.7855  30.8431 14.40696482987843"
      },
      "geometry": {
        "type": "Point",
        "coordinates": [
          63.32094708877791,
          -36.761403382349094
        ]
      }
    },
    {
      "type": "Feature",
      "properties": {
        "norad_id": 30434,
        "name": "FENGYUN 1C DEB",
        "group": "fengyun-1c-debris",
        "lat": -32.502827681950585,
        "lon": -16.537533078772828,
        "alt_km": 957.9831559424019,
        "timestamp": "2025-12-16T23:36:36.472855+00:00",
        "meta_object_name": "FENGYUN 1C DEB",
        "meta_object_id": "1999-025AEV",
        "meta_epoch": "2025-12-16T05:05:50.172864",
        "meta_mean_motion": 13.90654339,
        "meta_eccentricity": 0.01208613,
        "meta_inclination": 98.9992,
        "meta_ra_of_asc_node": 336.9206,
        "meta_arg_of_pericenter": 221.705,
        "meta_mean_anomaly": 204.4626,
        "meta_ephemeris_type": 0,
        "meta_classification_type": "U",
        "meta_norad_cat_id": 30434,
        "meta_element_set_no": 999,
        "meta_rev_at_epoch": 95755,
        "meta_bstar": 0.00033922545,
        "meta_mean_motion_dot": 4.06e-06,
        "meta_mean_motion_ddot": 0,
        "tle_line1": "1 30434U 99025AEV 25350.21238626  .00000406  00000+0  33923-3 0  9996",
        "tle_line2": "2 30434  98.9992 336.9206 0120861 221.7050 204.4626 13.90654339957554"
      },
      "geometry": {
        "type": "Point",
        "coordinates": [
          -16.537533078772828,
          -32.502827681950585
        ]
      }
    },
    {
      "type": "Feature",
      "properties": {
        "norad_id": 30435,
        "name": "FENGYUN 1C DEB",
        "group": "fengyun-1c-debris",
        "lat": -10.321797399878218,
        "lon": 155.39681077921935,
        "alt_km": 965.5296931517096,
        "timestamp": "2025-12-16T23:36:36.472865+00:00",
        "meta_object_name": "FENGYUN 1C DEB",
        "meta_object_id": "1999-025AEW",
        "meta_epoch": "2025-12-15T22:36:39.422880",
        "meta_mean_motion": 13.79631641,
        "meta_eccentricity": 0.0207925,
        "meta_inclination": 99.0169,
        "meta_ra_of_asc_node": 336.0612,
        "meta_arg_of_pericenter": 103.3321,
        "meta_mean_anomaly": 313.9491,
        "meta_ephemeris_type": 0,
        "meta_classification_type": "U",
        "meta_norad_cat_id": 30435,
        "meta_element_set_no": 999,
        "meta_rev_at_epoch": 94204,
        "meta_bstar": 0.0013027588,
        "meta_mean_motion_dot": 1.541e-05,
        "meta_mean_motion_ddot": 0,
        "tle_line1": "1 30435U 99025AEW 25349.94212295  .00001541  00000+0  13028-2 0  9993",
        "tle_line2": "2 30435  99.0169 336.0612 0207925 103.3321 313.9491 13.79631641942040"
      },
      "geometry": {
        "type": "Point",
        "coordinates": [
          155.39681077921935,
          -10.321797399878218
        ]
      }
    }
  ]
}